OBJECT_NAME,OBJECT_ID,EPOCH,MEAN_MOTION,ECCENTRICITY,INCLINATION,RA_OF_ASC_NODE,ARG_OF_PERICENTER,MEAN_ANOMALY,EPHEMERIS_TYPE,CLASSIFICATION_TYPE,NORAD_CAT_ID,ELEMENT_SET_NO,REV_AT_EPOCH,BSTAR,MEAN_MOTION_DOT,MEAN_MOTION_DDOT
ONEWEB-0158,2021-025N,2026-07-23T07:30:14.948064,13.13471432,.00019124,87.8989,313.0319,108.4606,251.6731,0,U,48054,999,25837,.10782829E-3,.52E-6,0
ONEWEB-0157,2021-025P,2026-07-23T00:48:00.589824,13.13471901,.00022826,87.8984,313.0922,93.5094,266.6296,0,U,48055,999,25827,-.59649538E-3,-.205E-5,0
ONEWEB-0162,2021-025Q,2026-07-23T05:42:48.363264,13.13469382,.00018563,87.8983,313.0511,94.3130,265.8211,0,U,48056,999,25827,-.21402527E-3,-.65E-6,0
ONEWEB-0155,2021-025R,2026-07-22T17:04:50.930112,13.13468154,.00019793,87.8988,313.1529,96.9707,263.1647,0,U,48057,999,25834,-.69927246E-3,-.243E-5,0
ONEWEB-0149,2021-025S,2026-07-23T06:24:26.044704,13.13471066,.00018163,87.8988,313.0469,94.4754,265.6583,0,U,48058,999,25822,-.28583758E-3,-.92E-6,0
ONEWEB-0148,2021-025T,2026-07-23T01:51:25.055712,13.13468795,.00017412,87.8982,313.0894,82.6427,277.4900,0,U,48059,999,25832,.23682463E-3,.99E-6,0
ONEWEB-0160,2021-025U,2026-07-23T05:55:10.306848,13.13469726,.00016672,87.8981,313.0514,121.2522,238.8770,0,U,48060,999,25829,-.60369171E-3,-.208E-5,0
ONEWEB-0163,2021-025V,2026-07-23T07:22:56.571744,13.13469262,.00021984,87.8990,313.0368,94.8629,265.2751,0,U,48061,999,25842,.501263E-3,.196E-5,0
ONEWEB-0159,2021-025W,2026-07-23T07:10:45.142176,13.13469818,.00021646,87.8990,313.0325,96.3198,263.8178,0,U,48062,999,25834,.71015588E-3,.272E-5,0
ONEWEB-0164,2021-025X,2026-07-23T06:43:56.089056,13.13470779,.00019414,87.8988,313.0425,102.0564,258.0783,0,U,48063,999,25832,.59588856E-3,.23E-5,0
ONEWEB-0167,2021-025Y,2026-07-23T07:24:09.990144,13.13470121,.00026331,87.8982,313.0434,102.6459,257.4965,0,U,48064,999,25831,.33677566E-3,.136E-5,0
ONEWEB-0166,2021-025Z,2026-07-23T07:57:03.713472,13.13470747,.00019442,87.8990,313.0136,98.2534,261.8816,0,U,48065,999,25839,-.79669887E-3,-.278E-5,0
ONEWEB-0151,2021-025AA,2026-07-23T06:09:47.498400,13.13470593,.00020879,87.8989,313.0432,101.6486,258.4877,0,U,48066,999,25832,-.76451155E-3,-.266E-5,0
ONEWEB-0170,2021-025AB,2026-07-23T06:21:59.219136,13.13469978,.00020727,87.8992,313.0433,115.5119,244.6225,0,U,48067,999,25828,-.4200938E-3,-.141E-5,0
ONEWEB-0168,2021-025AC,2026-07-23T00:30:57.858336,13.13469414,.00020361,87.8989,313.0936,100.3310,259.8049,0,U,48068,999,25826,-.79286503E-3,-.277E-5,0
ONEWEB-0173,2021-025AD,2026-07-23T00:18:46.709568,13.13469554,.00023143,87.8982,313.0941,95.2079,264.9314,0,U,48069,999,25850,-.5755582E-3,-.197E-5,0
ONEWEB-0171,2021-025AE,2026-07-23T06:41:29.754240,13.13470689,.0002012,87.8979,313.0487,102.1667,257.9687,0,U,48070,999,25835,.63116088E-3,.243E-5,0
ONEWEB-0172,2021-025AF,2026-07-23T06:12:13.340736,13.13471483,.00021309,87.8990,313.0457,100.4414,259.6956,0,U,48071,999,25924,-.73469058E-3,-.256E-5,0
ONEWEB-0174,2021-025AG,2026-07-23T05:45:26.047584,13.13469548,.00019207,87.8991,313.0482,95.4535,264.6813,0,U,48072,999,25856,-.99708741E-4,-.24E-6,0
ONEWEB-0175,2021-025AH,2026-07-23T06:29:18.296160,13.13470581,.0002219,87.8989,313.0274,107.1648,252.9724,0,U,48073,999,25822,-.19426949E-3,-.58E-6,0
ONEWEB-0177,2021-025AJ,2026-07-23T06:46:22.223424,13.13470466,.00020044,87.8989,313.0426,92.9800,267.1559,0,U,48074,999,25841,.66544586E-3,.256E-5,0
ONEWEB-0178,2021-025AK,2026-07-23T05:23:41.196768,13.13470673,.00022159,87.8978,313.0628,100.0180,260.1199,0,U,48075,999,25845,.66687808E-3,.256E-5,0
ONEWEB-0108,2021-025AL,2026-07-22T17:26:48.541344,13.13469837,.00017382,87.8991,313.1454,99.6099,260.5226,0,U,48076,999,25831,-.56259541E-3,-.193E-5,0
ONEWEB-0169,2021-025AM,2026-07-22T18:13:08.081184,13.13469261,.00019305,87.8987,313.1446,95.4625,264.6724,0,U,48077,999,25697,.74046678E-3,.283E-5,0
ONEWEB-0176,2021-031A,2026-07-23T04:23:05.728416,13.14503379,.0002211,87.8963,282.5284,100.8504,259.2875,0,U,48210,999,25304,-.40254254E-3,-.136E-5,0
ONEWEB-0184,2021-031B,2026-07-23T03:44:16.655712,13.14502786,.0002798,87.8970,282.5361,108.1567,251.9867,0,U,48211,999,25301,-.2303299E-3,-.73E-6,0
ONEWEB-0179,2021-031C,2026-07-23T04:12:05.616864,14.25577867,.02228069,87.8984,278.3126,139.5719,222.2275,0,U,48212,999,25417,.92312711E-4,.306E-5,0
ONEWEB-0180,2021-031D,2026-07-23T03:48:50.597280,13.14502976,.00024323,87.8967,282.5321,93.1942,266.9466,0,U,48213,999,25294,-.52050287E-3,-.18E-5,0
ONEWEB-0218,2021-031E,2026-07-23T04:20:47.960160,13.14504111,.00029134,87.8971,282.5276,103.3055,256.8400,0,U,48214,999,25310,-.72035489E-3,-.254E-5,0
ONEWEB-0209,2021-031F,2026-07-23T04:04:49.420416,13.14503999,.00021796,87.8960,282.5428,93.2847,266.8532,0,U,48215,999,25310,-.46903352E-3,-.161E-5,0
